{"found": 9, "bounds": [[51.51509, -0.14172], [51.51609, -0.14099]], "features": [{"id": 21056979,"centroid": {"type":"POINT","coordinates":[51.5152, -0.14145]},"bounds": [[51.51520, -0.14145], [51.51520, -0.14145]],"properties": {"addr:housenumber": "245", "osm_element": "node", "addr:housename": "Oxford Circus House", "synthesized_name": "245", "osm_id": "799284631"},"type": "Feature"},{"id": 15197178,"centroid": {"type":"POINT","coordinates":[51.51514, -0.14131]},"bounds": [[51.51514, -0.14131], [51.51514, -0.14131]],"properties": {"addr:housenumber": "18", "osm_element": "node", "amenity": "pub", "name": "The Argyll Arms", "osm_id": "499350848"},"type": "Feature"},{"id": 13303751,"centroid": {"type":"POINT","coordinates":[51.51551, -0.14099]},"bounds": [[51.51551, -0.14099], [51.51551, -0.14099]],"properties": {"addr:housenumber": "216", "osm_element": "node", "synthesized_name": "216", "osm_id": "383964406"},"type": "Feature"},{"id": 16347698,"centroid": {"type":"POINT","coordinates":[51.51511, -0.14158]},"bounds": [[51.51511, -0.14158], [51.51511, -0.14158]],"properties": {"shop": "clothes", "osm_element": "node", "addr:housenumber": "266 270", "name": "Tezenis", "osm_id": "595299963"},"type": "Feature"},{"id": 22831450,"centroid": {"type":"POINT","coordinates":[51.51609, -0.14145]},"bounds": [[51.51609, -0.14145], [51.51609, -0.14145]],"properties": {"website": "www.melito.co.uk", "addr:housenumber": "12", "amenity": "restaurant", "name": "Melito", "addr:postcode": "W1W 8LR", "telephone": "02076366560", "osm_id": "878030036", "osm_element": "node", "addr:street": "Great Castle Street"},"type": "Feature"},{"id": 21057007,"centroid": {"type":"POINT","coordinates":[51.51509, -0.14127]},"bounds": [[51.51509, -0.14127], [51.51509, -0.14127]],"properties": {"addr:housenumber": "19", "osm_element": "node", "synthesized_name": "19", "osm_id": "799284734"},"type": "Feature"},{"id": 19514929,"centroid": {"type":"POINT","coordinates":[51.51591, -0.14103]},"bounds": [[51.51591, -0.14103], [51.51591, -0.14103]],"properties": {"addr:housenumber": "1", "addr:city": "London", "osm_id": "691084128", "osm_element": "node", "addr:country": "GB", "synthesized_name": "1", "addr:street": "Great Portland Street"},"type": "Feature"},{"id": 22831453,"centroid": {"type":"POINT","coordinates":[51.51604, -0.14172]},"bounds": [[51.51604, -0.14172], [51.51604, -0.14172]],"properties": {"addr:housenumber": "15", "cuisine": "indian", "amenity": "restaurant", "name": "Kerala", "telephone": "02075802125", "osm_id": "878030042", "osm_element": "node"},"type": "Feature"},{"id": 21056974,"centroid": {"type":"POINT","coordinates":[51.51519, -0.14106]},"bounds": [[51.51519, -0.14106], [51.51519, -0.14106]],"properties": {"addr:housenumber": "237/9", "osm_element": "node", "addr:housename": "Western House", "synthesized_name": "237/9", "osm_id": "799284615"},"type": "Feature"}], "type": "FeatureCollection", "crs": {"type": "EPSG", "properties": {"code": 4326, "coordinate_order": [0, 1]}}}